start=new Date('2021-09-21T00:00:00.000Z').valueOf();
sats=[{"TLE_LINE2":"2 46067  53.0535 220.1961 0001618  73.5099 286.6068 15.06401939 63425","RCS_SIZE":"LARGE","REV_AT_EPOCH":"6342","COUNTRY_CODE":"US","SEMIMAJOR_AXIS":"6925.343","PERIAPSIS":"546.087","MEAN_MOTION":"15.06401939","CENTER_NAME":"EARTH","OBJECT_TYPE":"PAYLOAD","MEAN_ANOMALY":"286.6068","NORAD_CAT_ID":"46067","MEAN_ELEMENT_THEORY":"SGP4","APOAPSIS":"548.328","TLE_LINE1":"1 46067U 20055AS  21263.30545485  .00000925  00000-0  80958-4 0  9993","ARG_OF_PERICENTER":"73.5099","PERIOD":"95.592","ELEMENT_SET_NO":"999","SITE":"AFETR","REF_FRAME":"TEME","DECAY_DATE":null,"RA_OF_ASC_NODE":"220.1961","TIME_SYSTEM":"UTC","CLASSIFICATION_TYPE":"U","OBJECT_NAME":"STARLINK-1529","GP_ID":"185094719","FILE":"3121163","INCLINATION":"53.0535","OBJECT_ID":"2020-055AS","ECCENTRICITY":"0.00016180","BSTAR":"0.00008095800000","LAUNCH_DATE":"2020-08-07","EPHEMERIS_TYPE":"0","EPOCH":"2021-09-20T07:19:51.299040","MEAN_MOTION_DDOT":"0.0000000000000","MEAN_MOTION_DOT":"0.00000925"},{"RCS_SIZE":"LARGE","TLE_LINE2":"2 46068  53.0525 220.7409 0001534  66.9763 293.1388 15.06397116 63406","REV_AT_EPOCH":"6340","SEMIMAJOR_AXIS":"6925.357","COUNTRY_CODE":"US","PERIAPSIS":"546.160","CENTER_NAME":"EARTH","MEAN_MOTION":"15.06397116","NORAD_CAT_ID":"46068","OBJECT_TYPE":"PAYLOAD","MEAN_ANOMALY":"293.1388","PERIOD":"95.592","ARG_OF_PERICENTER":"66.9763","MEAN_ELEMENT_THEORY":"SGP4","APOAPSIS":"548.285","TLE_LINE1":"1 46068U 20055AT  21263.18382040  .00000254  00000-0  35953-4 0  9996","ELEMENT_SET_NO":"999","SITE":"AFETR","REF_FRAME":"TEME","TIME_SYSTEM":"UTC","CLASSIFICATION_TYPE":"U","DECAY_DATE":null,"RA_OF_ASC_NODE":"220.7409","OBJECT_NAME":"STARLINK-1532","GP_ID":"185094969","FILE":"3121163","INCLINATION":"53.0525","OBJECT_ID":"2020-055AT","BSTAR":"0.00003595300000","ECCENTRICITY":"0.00015340","EPHEMERIS_TYPE":"0","EPOCH":"2021-09-20T04:24:42.082560","LAUNCH_DATE":"2020-08-07","MEAN_MOTION_DDOT":"0.0000000000000","MEAN_MOTION_DOT":"0.00000254"},{"NORAD_CAT_ID":"46069","MEAN_ANOMALY":"286.3272","OBJECT_TYPE":"PAYLOAD","MEAN_MOTION":"15.06392012","CENTER_NAME":"EARTH","SITE":"AFETR","ELEMENT_SET_NO":"999","PERIOD":"95.593","ARG_OF_PERICENTER":"73.7905","TLE_LINE1":"1 46069U 20055AU  21263.33125850 -.00000934  00000-0 -43785-4 0  9997","MEAN_ELEMENT_THEORY":"SGP4","APOAPSIS":"548.424","REV_AT_EPOCH":"6343","RCS_SIZE":"LARGE","TLE_LINE2":"2 46069  53.0532 220.0779 0001712  73.7905 286.3272 15.06392012 63439","PERIAPSIS":"546.052","COUNTRY_CODE":"US","SEMIMAJOR_AXIS":"6925.373","BSTAR":"-0.00004378500000","ECCENTRICITY":"0.00017120","INCLINATION":"53.0532","OBJECT_ID":"2020-055AU","FILE":"3121163","MEAN_MOTION_DOT":"-0.00000934","MEAN_MOTION_DDOT":"0.0000000000000","EPOCH":"2021-09-20T07:57:00.734400","EPHEMERIS_TYPE":"0","LAUNCH_DATE":"2020-08-07","CLASSIFICATION_TYPE":"U","TIME_SYSTEM":"UTC","RA_OF_ASC_NODE":"220.0779","DECAY_DATE":null,"REF_FRAME":"TEME","GP_ID":"185095221","OBJECT_NAME":"STARLINK-1533"},{"LAUNCH_DATE":"2020-08-07","EPHEMERIS_TYPE":"0","EPOCH":"2021-09-20T06:42:41.832576","MEAN_MOTION_DDOT":"0.0000000000000","MEAN_MOTION_DOT":"-0.00000487","FILE":"3121163","INCLINATION":"53.0530","OBJECT_ID":"2020-055AV","ECCENTRICITY":"0.00016480","BSTAR":"-0.00001377500000","OBJECT_NAME":"STARLINK-1536","GP_ID":"185095472","REF_FRAME":"TEME","DECAY_DATE":null,"RA_OF_ASC_NODE":"220.3095","TIME_SYSTEM":"UTC","CLASSIFICATION_TYPE":"U","APOAPSIS":"548.369","MEAN_ELEMENT_THEORY":"SGP4","TLE_LINE1":"1 46070U 20055AV  21263.27965084 -.00000487  00000-0 -13775-4 0  9992","PERIOD":"95.592","ARG_OF_PERICENTER":"65.5438","SITE":"AFETR","ELEMENT_SET_NO":"999","CENTER_NAME":"EARTH","MEAN_MOTION":"15.06395415","OBJECT_TYPE":"PAYLOAD","MEAN_ANOMALY":"294.5723","NORAD_CAT_ID":"46070","SEMIMAJOR_AXIS":"6925.363","COUNTRY_CODE":"US","PERIAPSIS":"546.086","RCS_SIZE":"LARGE","TLE_LINE2":"2 46070  53.0530 220.3095 0001648  65.5438 294.5723 15.06395415 63422","REV_AT_EPOCH":"6342"},{"SEMIMAJOR_AXIS":"6925.362","COUNTRY_CODE":"US","PERIAPSIS":"546.238","TLE_LINE2":"2 46071  53.0546 220.2298 0001428  68.3009 291.8132 15.06395709 63425","RCS_SIZE":"LARGE","REV_AT_EPOCH":"6342","MEAN_ELEMENT_THEORY":"SGP4","APOAPSIS":"548.216","TLE_LINE1":"1 46071U 20055AW  21263.29807881  .00000529  00000-0  54400-4 0  9990","ARG_OF_PERICENTER":"68.3009","PERIOD":"95.592","SITE":"AFETR","ELEMENT_SET_NO":"999","MEAN_MOTION":"15.06395709","CENTER_NAME":"EARTH","OBJECT_TYPE":"PAYLOAD","MEAN_ANOMALY":"291.8132","NORAD_CAT_ID":"46071","OBJECT_NAME":"STARLINK-1538","GP_ID":"185094220","REF_FRAME":"TEME","DECAY_DATE":null,"RA_OF_ASC_NODE":"220.2298","TIME_SYSTEM":"UTC","CLASSIFICATION_TYPE":"U","LAUNCH_DATE":"2020-08-07","EPHEMERIS_TYPE":"0","EPOCH":"2021-09-20T07:09:14.009184","MEAN_MOTION_DDOT":"0.0000000000000","MEAN_MOTION_DOT":"0.00000529","FILE":"3121163","INCLINATION":"53.0546","OBJECT_ID":"2020-055AW","ECCENTRICITY":"0.00014280","BSTAR":"0.00005440000000"},{"PERIAPSIS":"546.176","COUNTRY_CODE":"US","SEMIMAJOR_AXIS":"6925.351","REV_AT_EPOCH":"6342","RCS_SIZE":"LARGE","TLE_LINE2":"2 46072  53.0530 219.8034 0001501  67.4935 292.6213 15.06399253 63428","ELEMENT_SET_NO":"999","SITE":"AFETR","TLE_LINE1":"1 46072U 20055AX  21263.38928219 -.00000397  00000-0 -77514-5 0  9997","APOAPSIS":"548.255","MEAN_ELEMENT_THEORY":"SGP4","ARG_OF_PERICENTER":"67.4935","PERIOD":"95.592","MEAN_ANOMALY":"292.6213","OBJECT_TYPE":"PAYLOAD","NORAD_CAT_ID":"46072","CENTER_NAME":"EARTH","MEAN_MOTION":"15.06399253","GP_ID":"185094470","OBJECT_NAME":"STARLINK-1539","RA_OF_ASC_NODE":"219.8034","DECAY_DATE":null,"CLASSIFICATION_TYPE":"U","TIME_SYSTEM":"UTC","REF_FRAME":"TEME","MEAN_MOTION_DOT":"-0.00000397","MEAN_MOTION_DDOT":"0.0000000000000","LAUNCH_DATE":"2020-08-07","EPOCH":"2021-09-20T09:20:33.981216","EPHEMERIS_TYPE":"0","ECCENTRICITY":"0.00015010","BSTAR":"-0.00000775140000","INCLINATION":"53.0530","OBJECT_ID":"2020-055AX","FILE":"3121163"},{"INCLINATION":"53.0551","OBJECT_ID":"2020-055AY","FILE":"3121163","BSTAR":"0.00014109000000","ECCENTRICITY":"0.00014950","EPOCH":"2021-09-20T09:43:10.138080","EPHEMERIS_TYPE":"0","LAUNCH_DATE":"2020-08-07","MEAN_MOTION_DOT":"0.00001821","MEAN_MOTION_DDOT":"0.0000000000000","REF_FRAME":"TEME","CLASSIFICATION_TYPE":"U","TIME_SYSTEM":"UTC","RA_OF_ASC_NODE":"219.7475","DECAY_DATE":null,"OBJECT_NAME":"STARLINK-1542","GP_ID":"185095721","CENTER_NAME":"EARTH","MEAN_MOTION":"15.06398214","NORAD_CAT_ID":"46073","MEAN_ANOMALY":"284.5812","OBJECT_TYPE":"PAYLOAD","ARG_OF_PERICENTER":"75.5343","PERIOD":"95.592","TLE_LINE1":"1 46073U 20055AY  21263.40497845  .00001821  00000-0  14109-3 0  9997","MEAN_ELEMENT_THEORY":"SGP4","APOAPSIS":"548.254","ELEMENT_SET_NO":"999","SITE":"AFETR","TLE_LINE2":"2 46073  53.0551 219.7475 0001495  75.5343 284.5812 15.06398214 63437","RCS_SIZE":"LARGE","REV_AT_EPOCH":"6343","SEMIMAJOR_AXIS":"6925.354","COUNTRY_CODE":"US","PERIAPSIS":"546.184"},{"MEAN_MOTION":"15.06387857","CENTER_NAME":"EARTH","MEAN_ANOMALY":"293.8157","OBJECT_TYPE":"PAYLOAD","NORAD_CAT_ID":"46074","TLE_LINE1":"1 46074U 20055AZ  21263.32389179 -.00000822  00000-0 -36326-4 0  9997","APOAPSIS":"548.326","MEAN_ELEMENT_THEORY":"SGP4","PERIOD":"95.593","ARG_OF_PERICENTER":"66.2994","ELEMENT_SET_NO":"999","SITE":"AFETR","RCS_SIZE":"LARGE","TLE_LINE2":"2 46074  53.0534 220.1111 0001552  66.2994 293.8157 15.06387857 63419","REV_AT_EPOCH":"6341","SEMIMAJOR_AXIS":"6925.386","COUNTRY_CODE":"US","PERIAPSIS":"546.176","INCLINATION":"53.0534","OBJECT_ID":"2020-055AZ","FILE":"3121163","ECCENTRICITY":"0.00015520","BSTAR":"-0.00003632600000","LAUNCH_DATE":"2020-08-07","EPOCH":"2021-09-20T07:46:24.250656","EPHEMERIS_TYPE":"0","MEAN_MOTION_DOT":"-0.00000822","MEAN_MOTION_DDOT":"0.0000000000000","REF_FRAME":"TEME","RA_OF_ASC_NODE":"220.1111","DECAY_DATE":null,"CLASSIFICATION_TYPE":"U","TIME_SYSTEM":"UTC","OBJECT_NAME":"STARLINK-1549","GP_ID":"185095972"},{"MEAN_MOTION_DOT":"0.00001454","MEAN_MOTION_DDOT":"0.0000000000000","LAUNCH_DATE":"2020-08-07","EPOCH":"2021-09-20T06:48:00.209664","EPHEMERIS_TYPE":"0","ECCENTRICITY":"0.00016170","BSTAR":"0.00011649000000","INCLINATION":"53.0550","OBJECT_ID":"2020-055BA","FILE":"3121163","GP_ID":"185094720","OBJECT_NAME":"STARLINK-1551","RA_OF_ASC_NODE":"220.2970","DECAY_DATE":null,"CLASSIFICATION_TYPE":"U","TIME_SYSTEM":"UTC","REF_FRAME":"TEME","ELEMENT_SET_NO":"999","SITE":"AFETR","TLE_LINE1":"1 46075U 20055BA  21263.28333576  .00001454  00000-0  11649-3 0  9993","APOAPSIS":"548.329","MEAN_ELEMENT_THEORY":"SGP4","PERIOD":"95.592","ARG_OF_PERICENTER":"67.3822","MEAN_ANOMALY":"292.7338","OBJECT_TYPE":"PAYLOAD","NORAD_CAT_ID":"46075","CENTER_NAME":"EARTH","MEAN_MOTION":"15.06401573","PERIAPSIS":"546.089","COUNTRY_CODE":"US","SEMIMAJOR_AXIS":"6925.344","REV_AT_EPOCH":"6341","RCS_SIZE":"LARGE","TLE_LINE2":"2 46075  53.0550 220.2970 0001617  67.3822 292.7338 15.06401573 63417"},{"GP_ID":"185094970","OBJECT_NAME":"STARLINK-1552","TIME_SYSTEM":"UTC","CLASSIFICATION_TYPE":"U","DECAY_DATE":null,"RA_OF_ASC_NODE":"220.7774","REF_FRAME":"TEME","MEAN_MOTION_DDOT":"0.0000000000000","MEAN_MOTION_DOT":"-0.00000353","EPHEMERIS_TYPE":"0","EPOCH":"2021-09-20T04:14:05.240256","LAUNCH_DATE":"2020-08-07","BSTAR":"-0.00000478560000","ECCENTRICITY":"0.00016950","FILE":"3121163","INCLINATION":"53.0541","OBJECT_ID":"2020-055BB","PERIAPSIS":"546.055","SEMIMAJOR_AXIS":"6925.364","COUNTRY_CODE":"US","REV_AT_EPOCH":"6338","TLE_LINE2":"2 46076  53.0541 220.7774 0001695  67.9976 292.1193 15.06395117 63382","RCS_SIZE":"LARGE","ELEMENT_SET_NO":"999","SITE":"AFETR","PERIOD":"95.592","ARG_OF_PERICENTER":"67.9976","APOAPSIS":"548.402","MEAN_ELEMENT_THEORY":"SGP4","TLE_LINE1":"1 46076U 20055BB  21263.17644954 -.00000353  00000-0 -47856-5 0  9997","NORAD_CAT_ID":"46076","OBJECT_TYPE":"PAYLOAD","MEAN_ANOMALY":"292.1193","CENTER_NAME":"EARTH","MEAN_MOTION":"15.06395117"}];
